DMC3-FM2                
1 40716U 15032B   21051.44028398  .00000024  00000-0  11266-4 0  9992
2 40716  97.9110 305.6711 0013323 151.0595 209.1341 14.73701875302185
DMC3-FM3                
1 40717U 15032C   21051.39481513  .00000015  00000-0  98637-5 0  9997
2 40717  97.9128 306.3943 0017162 145.1125 215.1202 14.73689485302172
CARBONITE 1 (CBNT-1)    
1 40718U 15032D   21051.43072903  .00000138  00000-0  27729-4 0  9991
2 40718  97.8059 289.9476 0017682 128.1871 232.0930 14.74913098302366
NAVSTAR 74 (USA 262)    
1 40730U 15033A   21050.26666189 -.00000090  00000-0  00000-0 0  9998
2 40730  55.4723 346.0848 0062119 356.5252   3.4431  2.00577653 41007
METEOSAT-11 (MSG-4)     
1 40732U 15034A   21050.98642885 -.00000002  00000-0  00000+0 0  9999
2 40732   0.2590 254.0266 0000695  14.0198 236.9646  1.00267376 20552
STAR ONE C4             
1 40733U 15034B   21051.13174545 -.00000261  00000-0  00000+0 0  9998
2 40733   0.0251  35.1181 0002764 317.0148 135.5547  1.00271627 20535
WGS F7 (USA 263)        
1 40746U 15036A   21051.41999701  .00000021  00000-0  00000+0 0  9997
2 40746   0.0176 112.7578 0000225 257.6829 106.3134  1.00270471 20390
BEIDOU 18               
1 40748U 15037A   21051.38879329 -.00000087  00000-0  00000+0 0  9992
2 40748  55.9450   7.9901 0005197 338.8865 262.9438  1.86233307 37931
BEIDOU 19               
1 40749U 15037B   21051.18944664 -.00000087  00000-0  00000+0 0  9996
2 40749  55.9483   7.9844 0007281 311.3669 293.4200  1.86232141 37928
INTELSAT 34 (IS-34)     
1 40874U 15039A   21050.90364196 -.00000282  00000-0  00000+0 0  9999
2 40874   0.0170 118.2182 0000787 109.3042 192.3165  1.00273359 20130
EUTELSAT 8 WEST B       
1 40875U 15039B   21051.35813345 -.00000062  00000-0  00000+0 0  9991
2 40875   0.0632   3.0442 0003488 354.1856 274.1818  1.00271346 20204
YAOGAN 27               
1 40878U 15040A   21051.45573084 -.00000021  00000-0  58662-4 0  9997
2 40878 100.1968  97.2348 0008397  18.9681 341.1747 13.15968281263638
GSAT-6                  
1 40880U 15041A   21050.76160568 -.00000157  00000-0  00000+0 0  9991
2 40880   0.0611 273.6804 0003605 348.2239 244.6597  1.00272995 20133
INMARSAT 5-F3           
1 40882U 15042A   21050.59159896  .00000053  00000-0  00000+0 0  9991
2 40882   0.0178 124.6866 0000419 139.3144 278.2709  1.00271752 20060
MUOS-4                  
1 40887U 15044A   21051.47942885 -.00000086  00000-0  00000+0 0  9991
2 40887   2.7348 350.3678 0058713 358.6076  49.2585  1.00272467 20075
GSAT0205 (GALILEO 9)    
1 40889U 15045A   21049.12183571  .00000020  00000-0  00000-0 0  9990
2 40889  55.9628 275.3311 0005950  20.7141 339.3640  1.70475032 33858
GSAT0206 (GALILEO 10)   
1 40890U 15045B   21051.10109749  .00000034  00000-0  00000+0 0  9992
2 40890  55.9605 275.2728 0004169  17.3799 342.6915  1.70475016 33919
TJS-1                   
1 40892U 15046A   21051.57731334 -.00000152  00000-0  00000+0 0  9999
2 40892   0.0328 252.7828 0001530  69.9616 190.8506  1.00274355 20073
GAOFEN 9-01             
1 40894U 15047A   21051.43225577  .00000017  00000-0  98410-5 0  9991
2 40894  97.8667 130.6659 0032357 330.3331  29.6045 14.76303538293062
EXPRESS-AM8             
1 40895U 15048A   21049.61984667 -.00000110  00000-0  00000-0 0  9990
2 40895   0.0424 276.9372 0000628 217.2398 223.7206  1.00271624 19872
2015-049A               
1 40899U 15049A   21051.52855840  .00000799  00000-0  43767-4 0  9991
2 40899  97.4749  56.6071 0013298 239.8541 218.6917 15.17024538300027
NUDT-PHONESAT           
1 40900U 15049B   21051.54166216  .00002952  00000-0  11917-3 0  9992
2 40900  97.4265  66.4622 0012102 182.8544 332.7352 15.25520675300996
ZDPS 2A                 
1 40901U 15049C   21051.49817418  .00001552  00000-0  77256-4 0  9998
2 40901  97.4645  60.0375 0011920 223.6860 287.7689 15.19046520300218
ZDPS 2B                 
1 40902U 15049D   21051.53601597  .00001631  00000-0  80967-4 0  9994
2 40902  97.4664  57.3676 0011856 221.1794 238.1616 15.19066314300190
XW-2A                   
1 40903U 15049E   21051.52300205  .00003028  00000-0  67200-4 0  9993
2 40903  97.2540 106.3182 0014535  83.2112  22.6027 15.44415548304749
KAITUO 1A               
1 40904U 15049F   21051.53439762  .00000766  00000-0  43302-4 0  9999
2 40904  97.4853  54.9431 0012871 240.8165 234.6842 15.16009389299827
2015-049G               
1 40905U 15049G   21051.54157488  .00000521  00000-0  31569-4 0  9994
2 40905  97.4973  52.0623 0013996 238.6286 217.6076 15.14832916299638
XW-2C                   
1 40906U 15049H   21051.51767840  .00000886  00000-0  48896-4 0  9996
2 40906  97.4840  55.3607 0013373 228.7752 230.1807 15.16491254299840
XW-2D                   
1 40907U 15049J   21051.47926241  .00001042  00000-0  56405-4 0  9994
2 40907  97.4841  55.0809 0012684 225.1831 286.8137 15.16778728299866
LILACSAT-2              
1 40908U 15049K   21051.52938528  .00000718  00000-0  42783-4 0  9995
2 40908  97.5015  53.1419 0014243 241.0072 217.9989 15.14293519299536
XW-2F                   
1 40910U 15049M   21051.51868346  .00001234  00000-0  62839-4 0  9995
2 40910  97.4722  58.0504 0013586 211.6449 303.9233 15.18620563299975
XW-2B                   
1 40911U 15049N   21051.53204899  .00001071  00000-0  58049-4 0  9992
2 40911  97.4842  55.8276 0012513 226.4694 232.7328 15.16699314299764
KAITUO 1B               
1 40912U 15049P   21051.51077602  .00001430  00000-0  67310-4 0  9991
2 40912  97.4489  62.3792 0014435 184.5922 326.5573 15.21101922300419
COSMOS 2507             
1 40920U 15050A   21050.72443455  .00000003  00000-0 -50656-4 0  9998
2 40920  82.4914 209.5316 0008479 263.1401  96.8714 12.42878983245453
COSMOS 2508             
1 40921U 15050B   21051.15209407  .00000003  00000-0 -46646-4 0  9998
2 40921  82.4874 208.5191 0013208 300.5578  59.4201 12.42878910245496
COSMOS 2509             
1 40922U 15050C   21051.17991201 -.00000013  00000-0 -16246-3 0  9995
2 40922  82.4871 208.5715 0014881 314.0990  45.8868 12.42885464245504
PUJIANG 1 (PJ-1)        
1 40925U 15051A   21051.53815072  .00001297  00000-0  41220-4 0  9994
2 40925  97.1302  66.7387 0014855  51.7683 100.1938 15.34280208302510
TIANWANG 1C (TW-1C)     
1 40926U 15051B   21051.29861338  .00772588  31143-3  10327-2 0  9999
2 40926  97.0283 113.8475 0004547 216.6034 210.2135 16.06661317306069
TIANWANG 1A (TW-1A)     
1 40928U 15051D   21051.52809579  .00004529  00000-0  99196-4 0  9997
2 40928  97.0892  79.2647 0010012  13.2179 142.1302 15.44560858303636
ASTROSAT                
1 40930U 15052A   21051.02533820  .00000735  00000-0  14110-4 0  9997
2 40930   5.9980  17.6110 0008524 174.1490 185.8738 14.76371981291807
LAPAN-A2                
1 40931U 15052B   21051.36111302  .00000724  00000-0  11700-4 0  9992
2 40931   5.9997   7.4976 0012756 187.3484 172.6579 14.76663115291961
LEMUR-2-JOEL            
1 40932U 15052C   21050.57671864  .00000884  00000-0  31717-4 0  9996
2 40932   6.0092 349.9831 0014066 225.7002 134.1972 14.78105519292055
LEMUR-2-CHRIS           
1 40933U 15052D   21050.57705090  .00000869  00000-0  29398-4 0  9991
2 40933   6.0072 346.5327 0014723 233.9430 125.9334 14.78245573292081
LEMUR-2-PETER           
1 40935U 15052F   21050.41146445  .00000875  00000-0  31900-4 0  9998
2 40935   6.0054   7.4628 0010598 187.1495 172.8482 14.77402944291818
EXACTVIEW 9             
1 40936U 15052G   21051.32152927  .00000796  00000-0  22038-4 0  9996
2 40936   6.0047  12.7465 0010504 174.6875 185.3365 14.76654981291862
BEIDOU 20               
1 40938U 15053A   21050.31126534 -.00000094  00000-0  00000+0 0  9994
2 40938  52.2466 281.4105 0046006 190.2342 245.3915  1.00263180 19874
SKY MUSTER 1 (NBN1A)    
1 40940U 15054A   21050.62688211 -.00000275  00000-0  00000+0 0  9998
2 40940   0.0106 158.8050 0001821 165.2325 191.6288  1.00272861 19775
ARSAT 2                 
1 40941U 15054B   21051.40106130 -.00000221  00000-0  00000+0 0  9992
2 40941   0.0376 284.2026 0001955  27.1168 262.5888  1.00273546 19833
MORELOS 3               
1 40946U 15056A   21050.89212682 -.00000035  00000-0  00000+0 0  9994
2 40946   4.4310 329.8238 0003363 357.5307  30.7166  1.00271920 19798
LINGQIAO VIDEO A        
1 40959U 15057B   21051.43319788  .00000027  00000-0  11646-4 0  9998
2 40959  97.8218 112.8641 0019498  74.8927 285.4438 14.73336253289050
LINGQIAO VIDEO B        
1 40960U 15057C   21051.41695151  .00000026  00000-0  11487-4 0  9991
2 40960  97.8243 113.4341 0019665  75.8101 284.5297 14.73454334289071
JILIN 1                 
1 40961U 15057D   21051.41330251  .00000053  00000-0  15460-4 0  9994
2 40961  97.8285 114.6318 0019784  75.2727 285.0679 14.73788219289123
AEROCUBE 5C             
1 40965U 15058B   21051.44688538  .00000083  00000-0  28430-4 0  9990
2 40965  64.7771 112.7225 0193123 347.1700  12.4525 14.74669685 77873
AEROCUBE 7              
1 40966U 15058C   21050.42508264  .00000138  00000-0  34334-4 0  9996
2 40966  64.7773 113.9346 0191950 347.1546  12.4703 14.75002680 77737
APSTAR 9                
1 40982U 15059A   21051.44546439 -.00000262  00000-0  00000+0 0  9991
2 40982   0.0413 286.5636 0001215 197.9174 328.4756  1.00271079 19671
TURKSAT 4B              
1 40984U 15060A   21051.13104911  .00000119  00000-0  00000+0 0  9996
2 40984   0.0320 286.4010 0002139  41.1416 279.8984  1.00269596 19628
TIANHUI 1-03            
1 40988U 15061A   21051.49116212  .00000816  00000-0  37177-4 0  9991
2 40988  97.3437 175.5149 0007099 313.5457 116.5147 15.23418554295963
NAVSTAR 75 (USA 265)    
1 41019U 15062A   21050.30934477 -.00000031  00000-0  00000-0 0  9999
2 41019  55.4738 106.9042 0066062 213.3324 146.3145  2.00563943 38848
CHINASAT 2C (ZX 2C)     
1 41021U 15063A   21050.93530860 -.00000320  00000-0  00000+0 0  9990
2 41021   0.0234 142.3939 0002006 222.9946 224.7930  1.00269363 19526
